[{"OBJECT_NAME":"ONEWEB-0684","OBJECT_ID":"2023-068L","EPOCH":"2026-03-31T06:09:38.270016","MEAN_MOTION":13.15549886,"ECCENTRICITY":0.0003051,"INCLINATION":87.8934,"RA_OF_ASC_NODE":274.7342,"ARG_OF_PERICENTER":88.4412,"MEAN_ANOMALY":271.7068,"EPHEMERIS_TYPE":0,"CLASSIFICATION_TYPE":"U","NORAD_CAT_ID":56720,"ELEMENT_SET_NO":999,"REV_AT_EPOCH":13900,"BSTAR":0.0004994,"MEAN_MOTION_DOT":2.01e-06,"MEAN_MOTION_DDOT":0.0},{"OBJECT_NAME":"ONEWEB-0686","OBJECT_ID":"2023-068M","EPOCH":"2026-03-31T03:43:29.414784","MEAN_MOTION":13.1659558,"ECCENTRICITY":0.0001825,"INCLINATION":87.9025,"RA_OF_ASC_NODE":244.3088,"ARG_OF_PERICENTER":88.242,"MEAN_ANOMALY":271.892,"EPHEMERIS_TYPE":0,"CLASSIFICATION_TYPE":"U","NORAD_CAT_ID":56721,"ELEMENT_SET_NO":999,"REV_AT_EPOCH":14144,"BSTAR":-0.00010687000000000001,"MEAN_MOTION_DOT":-2.8e-07,"MEAN_MOTION_DDOT":0.0},{"OBJECT_NAME":"ONEWEB-0694","OBJECT_ID":"2023-068N","EPOCH":"2026-03-31T03:52:38.209440","MEAN_MOTION":13.16595116,"ECCENTRICITY":0.0001395,"INCLINATION":87.904,"RA_OF_ASC_NODE":244.2567,"ARG_OF_PERICENTER":87.6911,"MEAN_ANOMALY":272.438,"EPHEMERIS_TYPE":0,"CLASSIFICATION_TYPE":"U","NORAD_CAT_ID":56722,"ELEMENT_SET_NO":999,"REV_AT_EPOCH":14150,"BSTAR":-1.3314000000000002e-05,"MEAN_MOTION_DOT":8e-08,"MEAN_MOTION_DDOT":0.0},{"OBJECT_NAME":"ONEWEB-0696","OBJECT_ID":"2023-068P","EPOCH":"2026-03-31T01:28:57.706464","MEAN_MOTION":13.15547374,"ECCENTRICITY":0.0002157,"INCLINATION":87.8926,"RA_OF_ASC_NODE":274.8171,"ARG_OF_PERICENTER":96.6653,"MEAN_ANOMALY":263.4723,"EPHEMERIS_TYPE":0,"CLASSIFICATION_TYPE":"U","NORAD_CAT_ID":56723,"ELEMENT_SET_NO":999,"REV_AT_EPOCH":13909,"BSTAR":-2.1214e-05,"MEAN_MOTION_DOT":5e-08,"MEAN_MOTION_DDOT":0.0},{"OBJECT_NAME":"ONEWEB-0703","OBJECT_ID":"2023-068Q","EPOCH":"2026-03-31T05:21:43.043040","MEAN_MOTION":13.15543981,"ECCENTRICITY":0.0002499,"INCLINATION":87.8921,"RA_OF_ASC_NODE":274.7654,"ARG_OF_PERICENTER":111.2452,"MEAN_ANOMALY":248.8946,"EPHEMERIS_TYPE":0,"CLASSIFICATION_TYPE":"U","NORAD_CAT_ID":56724,"ELEMENT_SET_NO":999,"REV_AT_EPOCH":13900,"BSTAR":-0.0019388,"MEAN_MOTION_DOT":-7.17e-06,"MEAN_MOTION_DDOT":0.0},{"OBJECT_NAME":"ONEWEB-0721","OBJECT_ID":"2023-068R","EPOCH":"2026-03-31T06:52:30.127584","MEAN_MOTION":13.22464057,"ECCENTRICITY":0.0001919,"INCLINATION":86.6722,"RA_OF_ASC_NODE":110.3911,"ARG_OF_PERICENTER":92.9986,"MEAN_ANOMALY":267.1367,"EPHEMERIS_TYPE":0,"CLASSIFICATION_TYPE":"U","NORAD_CAT_ID":56725,"ELEMENT_SET_NO":999,"REV_AT_EPOCH":14764,"BSTAR":-3.0709e-05,"MEAN_MOTION_DOT":2e-08,"MEAN_MOTION_DDOT":0.0},{"OBJECT_NAME":"ONEWEB-0015","OBJECT_ID":"2024-188A","EPOCH":"2026-03-31T06:11:18.745440","MEAN_MOTION":13.11418556,"ECCENTRICITY":0.0001305,"INCLINATION":87.89,"RA_OF_ASC_NODE":36.5841,"ARG_OF_PERICENTER":88.538,"MEAN_ANOMALY":271.5897,"EPHEMERIS_TYPE":0,"CLASSIFICATION_TYPE":"U","NORAD_CAT_ID":61594,"ELEMENT_SET_NO":999,"REV_AT_EPOCH":7424,"BSTAR":-0.0013133,"MEAN_MOTION_DOT":-4.53e-06,"MEAN_MOTION_DDOT":0.0},{"OBJECT_NAME":"ONEWEB-0687","OBJECT_ID":"2024-188B","EPOCH":"2026-03-31T05:51:50.537952","MEAN_MOTION":13.17649594,"ECCENTRICITY":0.0001437,"INCLINATION":87.9169,"RA_OF_ASC_NODE":21.3608,"ARG_OF_PERICENTER":67.0164,"MEAN_ANOMALY":293.1119,"EPHEMERIS_TYPE":0,"CLASSIFICATION_TYPE":"U","NORAD_CAT_ID":61595,"ELEMENT_SET_NO":999,"REV_AT_EPOCH":7563,"BSTAR":0.00026872,"MEAN_MOTION_DOT":1.17e-06,"MEAN_MOTION_DDOT":0.0},{"OBJECT_NAME":"ONEWEB-0688","OBJECT_ID":"2024-188C","EPOCH":"2026-03-31T06:33:08.090784","MEAN_MOTION":13.17651193,"ECCENTRICITY":7.5e-05,"INCLINATION":87.917,"RA_OF_ASC_NODE":21.3547,"ARG_OF_PERICENTER":111.016,"MEAN_ANOMALY":249.1052,"EPHEMERIS_TYPE":0,"CLASSIFICATION_TYPE":"U","NORAD_CAT_ID":61596,"ELEMENT_SET_NO":999,"REV_AT_EPOCH":7563,"BSTAR":0.00014976,"MEAN_MOTION_DOT":7.1e-07,"MEAN_MOTION_DDOT":0.0},{"OBJECT_NAME":"ONEWEB-0689","OBJECT_ID":"2024-188D","EPOCH":"2026-03-31T05:10:18.109632","MEAN_MOTION":13.11418507,"ECCENTRICITY":0.0001796,"INCLINATION":87.8919,"RA_OF_ASC_NODE":36.5367,"ARG_OF_PERICENTER":69.0816,"MEAN_ANOMALY":291.0504,"EPHEMERIS_TYPE":0,"CLASSIFICATION_TYPE":"U","NORAD_CAT_ID":61597,"ELEMENT_SET_NO":999,"REV_AT_EPOCH":7423,"BSTAR":0.0013558,"MEAN_MOTION_DOT":4.93e-06,"MEAN_MOTION_DDOT":0.0},{"OBJECT_NAME":"ONEWEB-0690","OBJECT_ID":"2024-188E","EPOCH":"2026-03-31T05:24:57.854304","MEAN_MOTION":13.11417133,"ECCENTRICITY":0.0002311,"INCLINATION":87.891,"RA_OF_ASC_NODE":36.5535,"ARG_OF_PERICENTER":94.9247,"MEAN_ANOMALY":265.2145,"EPHEMERIS_TYPE":0,"CLASSIFICATION_TYPE":"U","NORAD_CAT_ID":61598,"ELEMENT_SET_NO":999,"REV_AT_EPOCH":7441,"BSTAR":0.0015473000000000002,"MEAN_MOTION_DOT":5.61e-06,"MEAN_MOTION_DDOT":0.0},{"OBJECT_NAME":"ONEWEB-0691","OBJECT_ID":"2024-188F","EPOCH":"2026-03-31T05:17:37.744800","MEAN_MOTION":13.11418077,"ECCENTRICITY":0.0001428,"INCLINATION":87.8918,"RA_OF_ASC_NODE":36.4563,"ARG_OF_PERICENTER":80.9389,"MEAN_ANOMALY":279.19,"EPHEMERIS_TYPE":0,"CLASSIFICATION_TYPE":"U","NORAD_CAT_ID":61599,"ELEMENT_SET_NO":999,"REV_AT_EPOCH":7426,"BSTAR":0.0016709,"MEAN_MOTION_DOT":6.05e-06,"MEAN_MOTION_DDOT":0.0},{"OBJECT_NAME":"ONEWEB-0692","OBJECT_ID":"2024-188G","EPOCH":"2026-03-31T05:46:54.247296","MEAN_MOTION":13.11415349,"ECCENTRICITY":0.000247,"INCLINATION":87.8896,"RA_OF_ASC_NODE":36.5802,"ARG_OF_PERICENTER":65.304,"MEAN_ANOMALY":294.8345,"EPHEMERIS_TYPE":0,"CLASSIFICATION_TYPE":"U","NORAD_CAT_ID":61600,"ELEMENT_SET_NO":999,"REV_AT_EPOCH":7425,"BSTAR":0.00012838,"MEAN_MOTION_DOT":5.8e-07,"MEAN_MOTION_DDOT":0.0},{"OBJECT_NAME":"ONEWEB-0693","OBJECT_ID":"2024-188H","EPOCH":"2026-03-31T05:00:48.494304","MEAN_MOTION":13.17649907,"ECCENTRICITY":0.0002216,"INCLINATION":87.9172,"RA_OF_ASC_NODE":21.3885,"ARG_OF_PERICENTER":100.0549,"MEAN_ANOMALY":260.0833,"EPHEMERIS_TYPE":0,"CLASSIFICATION_TYPE":"U","NORAD_CAT_ID":61601,"ELEMENT_SET_NO":999,"REV_AT_EPOCH":7561,"BSTAR":-1.2045999999999999e-08,"MEAN_MOTION_DOT":1.3e-07,"MEAN_MOTION_DDOT":0.0},{"OBJECT_NAME":"ONEWEB-0695","OBJECT_ID":"2024-188J","EPOCH":"2026-03-31T05:12:43.321248","MEAN_MOTION":13.11419379,"ECCENTRICITY":0.0002035,"INCLINATION":87.8901,"RA_OF_ASC_NODE":36.5763,"ARG_OF_PERICENTER":64.087,"MEAN_ANOMALY":296.0468,"EPHEMERIS_TYPE":0,"CLASSIFICATION_TYPE":"U","NORAD_CAT_ID":61602,"ELEMENT_SET_NO":999,"REV_AT_EPOCH":7424,"BSTAR":0.0013657,"MEAN_MOTION_DOT":4.97e-06,"MEAN_MOTION_DDOT":0.0},{"OBJECT_NAME":"ONEWEB-0697","OBJECT_ID":"2024-188K","EPOCH":"2026-03-30T20:49:47.036064","MEAN_MOTION":13.11416543,"ECCENTRICITY":0.0002525,"INCLINATION":87.8898,"RA_OF_ASC_NODE":36.6354,"ARG_OF_PERICENTER":68.5914,"MEAN_ANOMALY":291.5483,"EPHEMERIS_TYPE":0,"CLASSIFICATION_TYPE":"U","NORAD_CAT_ID":61603,"ELEMENT_SET_NO":999,"REV_AT_EPOCH":7418,"BSTAR":-0.0011443,"MEAN_MOTION_DOT":-3.93e-06,"MEAN_MOTION_DDOT":0.0},{"OBJECT_NAME":"ONEWEB-0698","OBJECT_ID":"2024-188L","EPOCH":"2026-03-31T05:27:24.100128","MEAN_MOTION":13.11416833,"ECCENTRICITY":0.0003068,"INCLINATION":87.8896,"RA_OF_ASC_NODE":36.5793,"ARG_OF_PERICENTER":82.4613,"MEAN_ANOMALY":277.6864,"EPHEMERIS_TYPE":0,"CLASSIFICATION_TYPE":"U","NORAD_CAT_ID":61604,"ELEMENT_SET_NO":999,"REV_AT_EPOCH":7425,"BSTAR":0.0015303,"MEAN_MOTION_DOT":5.55e-06,"MEAN_MOTION_DDOT":0.0}]