ONEWEB-0684             
1 56720U 23068L   26090.25669294  .00000201  00000+0  49940-3 0  9990
2 56720  87.8934 274.7342 0003051  88.4412 271.7068 13.15549886139000
ONEWEB-0686             
1 56721U 23068M   26090.15520156 -.00000028  00000+0 -10687-3 0  9998
2 56721  87.9025 244.3088 0001825  88.2420 271.8920 13.16595580141449
ONEWEB-0694             
1 56722U 23068N   26090.16155335  .00000008  00000+0 -13314-4 0  9991
2 56722  87.9040 244.2567 0001395  87.6911 272.4380 13.16595116141507
ONEWEB-0696             
1 56723U 23068P   26090.06177901  .00000005  00000+0 -21214-4 0  9999
2 56723  87.8926 274.8171 0002157  96.6653 263.4723 13.15547374139094
ONEWEB-0703             
1 56724U 23068Q   26090.22341485 -.00000717  00000+0 -19388-2 0  9996
2 56724  87.8921 274.7654 0002499 111.2452 248.8946 13.15543981139000
ONEWEB-0721             
1 56725U 23068R   26090.28645981  .00000002  00000+0 -30709-4 0  9999
2 56725  86.6722 110.3911 0001919  92.9986 267.1367 13.22464057147645
ONEWEB-0015             
1 61594U 24188A   26090.25785585 -.00000453  00000+0 -13133-2 0  9996
2 61594  87.8900  36.5841 0001305  88.5380 271.5897 13.11418556 74248
ONEWEB-0687             
1 61595U 24188B   26090.24433493  .00000117  00000+0  26872-3 0  9994
2 61595  87.9169  21.3608 0001437  67.0164 293.1119 13.17649594 75633
ONEWEB-0688             
1 61596U 24188C   26090.27301031  .00000071  00000+0  14976-3 0  9991
2 61596  87.9170  21.3547 0000750 111.0160 249.1052 13.17651193 75636
ONEWEB-0689             
1 61597U 24188D   26090.21548738  .00000493  00000+0  13558-2 0  9995
2 61597  87.8919  36.5367 0001796  69.0816 291.0504 13.11418507 74233
ONEWEB-0690             
1 61598U 24188E   26090.22566961  .00000561  00000+0  15473-2 0  9999
2 61598  87.8910  36.5535 0002311  94.9247 265.2145 13.11417133 74419
ONEWEB-0691             
1 61599U 24188F   26090.22057575  .00000605  00000+0  16709-2 0  9998
2 61599  87.8918  36.4563 0001428  80.9389 279.1900 13.11418077 74262
ONEWEB-0692             
1 61600U 24188G   26090.24090564  .00000058  00000+0  12838-3 0  9990
2 61600  87.8896  36.5802 0002470  65.3040 294.8345 13.11415349 74251
ONEWEB-0693             
1 61601U 24188H   26090.20889461  .00000013  00000+0 -12046-7 0  9996
2 61601  87.9172  21.3885 0002216 100.0549 260.0833 13.17649907 75615
ONEWEB-0695             
1 61602U 24188J   26090.21716807  .00000497  00000+0  13657-2 0  9990
2 61602  87.8901  36.5763 0002035  64.0870 296.0468 13.11419379 74246
ONEWEB-0697             
1 61603U 24188K   26089.86790551 -.00000393  00000+0 -11443-2 0  9996
2 61603  87.8898  36.6354 0002525  68.5914 291.5483 13.11416543 74181
ONEWEB-0698             
1 61604U 24188L   26090.22736227  .00000555  00000+0  15303-2 0  9996
2 61604  87.8896  36.5793 0003068  82.4613 277.6864 13.11416833 74258
